start=new Date('2022-04-26T00:00:00.000Z').valueOf();
sats=[{"MEAN_MOTION_DDOT":"0.0000000000000","COUNTRY_CODE":"US","MEAN_ELEMENT_THEORY":"SGP4","ECCENTRICITY":"0.00014540","ELEMENT_SET_NO":"999","BSTAR":"0.00011842000000","LAUNCH_DATE":"2021-04-29","EPOCH":"2022-04-25T20:36:00.647712","REF_FRAME":"TEME","INCLINATION":"53.0553","ARG_OF_PERICENTER":"63.6462","PERIOD":"95.592","SEMIMAJOR_AXIS":"6925.352","REV_AT_EPOCH":"5493","NORAD_CAT_ID":"48322","OBJECT_ID":"2021-036AY","RCS_SIZE":"MEDIUM","RA_OF_ASC_NODE":"328.5476","PERIAPSIS":"546.210","GP_ID":"202027173","TLE_LINE2":"2 48322  53.0553 328.5476 0001454  63.6462 296.4676 15.06398951 54936","CENTER_NAME":"EARTH","MEAN_MOTION_DOT":"0.00001483","TIME_SYSTEM":"UTC","DECAY_DATE":null,"TLE_LINE1":"1 48322U 21036AY  22115.85834083  .00001483  00000-0  11842-3 0  9996","MEAN_ANOMALY":"296.4676","OBJECT_NAME":"STARLINK-2477","MEAN_MOTION":"15.06398951","SITE":"AFETR","FILE":"3416090","CLASSIFICATION_TYPE":"U","APOAPSIS":"548.224","OBJECT_TYPE":"PAYLOAD","EPHEMERIS_TYPE":"0"},{"RCS_SIZE":"LARGE","GP_ID":"202027423","TLE_LINE2":"2 48323  53.0552 328.5734 0001726  54.7397 305.3754 15.06395122 54937","RA_OF_ASC_NODE":"328.5734","PERIAPSIS":"546.033","DECAY_DATE":null,"CENTER_NAME":"EARTH","MEAN_MOTION_DOT":"0.00000246","TIME_SYSTEM":"UTC","OBJECT_NAME":"STARLINK-2515","MEAN_ANOMALY":"305.3754","TLE_LINE1":"1 48323U 21036AZ  22115.85465424  .00000246  00000-0  35390-4 0  9997","FILE":"3416090","SITE":"AFETR","CLASSIFICATION_TYPE":"U","MEAN_MOTION":"15.06395122","APOAPSIS":"548.424","EPHEMERIS_TYPE":"0","OBJECT_TYPE":"PAYLOAD","MEAN_MOTION_DDOT":"0.0000000000000","MEAN_ELEMENT_THEORY":"SGP4","COUNTRY_CODE":"US","ELEMENT_SET_NO":"999","ECCENTRICITY":"0.00017260","EPOCH":"2022-04-25T20:30:42.126336","LAUNCH_DATE":"2021-04-29","BSTAR":"0.00003539000000","REF_FRAME":"TEME","INCLINATION":"53.0552","ARG_OF_PERICENTER":"54.7397","PERIOD":"95.592","REV_AT_EPOCH":"5493","SEMIMAJOR_AXIS":"6925.364","OBJECT_ID":"2021-036AZ","NORAD_CAT_ID":"48323"},{"ARG_OF_PERICENTER":"80.8775","INCLINATION":"53.0543","REF_FRAME":"TEME","PERIOD":"95.593","SEMIMAJOR_AXIS":"6925.367","REV_AT_EPOCH":"5552","NORAD_CAT_ID":"48324","OBJECT_ID":"2021-036BA","MEAN_MOTION_DDOT":"0.0000000000000","COUNTRY_CODE":"US","MEAN_ELEMENT_THEORY":"SGP4","ECCENTRICITY":"0.00014240","ELEMENT_SET_NO":"999","BSTAR":"0.00006982300000","LAUNCH_DATE":"2021-04-29","EPOCH":"2022-04-25T20:25:23.602368","MEAN_MOTION":"15.06394031","CLASSIFICATION_TYPE":"U","SITE":"AFETR","FILE":"3415832","APOAPSIS":"548.218","OBJECT_TYPE":"PAYLOAD","EPHEMERIS_TYPE":"0","RCS_SIZE":"LARGE","PERIAPSIS":"546.246","RA_OF_ASC_NODE":"328.5871","GP_ID":"201999691","TLE_LINE2":"2 48324  53.0543 328.5871 0001424  80.8775 279.2375 15.06394031 55527","TIME_SYSTEM":"UTC","MEAN_MOTION_DOT":"0.00000759","CENTER_NAME":"EARTH","DECAY_DATE":null,"TLE_LINE1":"1 48324U 21036BA  22115.85096762  .00000759  00000-0  69823-4 0  9990","OBJECT_NAME":"STARLINK-2527","MEAN_ANOMALY":"279.2375"},{"PERIAPSIS":"546.272","RA_OF_ASC_NODE":"328.6147","GP_ID":"201999706","TLE_LINE2":"2 48325  53.0553 328.6147 0001412  61.8402 298.2730 15.06388052 55521","RCS_SIZE":"LARGE","TLE_LINE1":"1 48325U 21036BB  22115.84728770 -.00000180  00000-0  68038-5 0  9998","OBJECT_NAME":"STARLINK-2495","MEAN_ANOMALY":"298.2730","TIME_SYSTEM":"UTC","MEAN_MOTION_DOT":"-0.00000180","CENTER_NAME":"EARTH","DECAY_DATE":null,"APOAPSIS":"548.228","MEAN_MOTION":"15.06388052","CLASSIFICATION_TYPE":"U","FILE":"3415833","SITE":"AFETR","OBJECT_TYPE":"PAYLOAD","EPHEMERIS_TYPE":"0","COUNTRY_CODE":"US","MEAN_ELEMENT_THEORY":"SGP4","MEAN_MOTION_DDOT":"0.0000000000000","LAUNCH_DATE":"2021-04-29","BSTAR":"0.00000680380000","EPOCH":"2022-04-25T20:20:05.657280","ECCENTRICITY":"0.00014120","ELEMENT_SET_NO":"999","PERIOD":"95.593","INCLINATION":"53.0553","ARG_OF_PERICENTER":"61.8402","REF_FRAME":"TEME","NORAD_CAT_ID":"48325","OBJECT_ID":"2021-036BB","SEMIMAJOR_AXIS":"6925.385","REV_AT_EPOCH":"5552"},{"CLASSIFICATION_TYPE":"U","FILE":"3416090","SITE":"AFETR","MEAN_MOTION":"15.06391514","APOAPSIS":"548.216","EPHEMERIS_TYPE":"0","OBJECT_TYPE":"PAYLOAD","RCS_SIZE":"LARGE","TLE_LINE2":"2 48326  53.0557 328.6197 0001410  89.7915 270.3235 15.06391514 54939","GP_ID":"202027674","PERIAPSIS":"546.263","RA_OF_ASC_NODE":"328.6197","DECAY_DATE":null,"TIME_SYSTEM":"UTC","MEAN_MOTION_DOT":"-0.00000384","CENTER_NAME":"EARTH","MEAN_ANOMALY":"270.3235","OBJECT_NAME":"STARLINK-2498","TLE_LINE1":"1 48326U 21036BC  22115.84359833 -.00000384  00000-0 -68987-5 0  9999","INCLINATION":"53.0557","ARG_OF_PERICENTER":"89.7915","REF_FRAME":"TEME","PERIOD":"95.593","REV_AT_EPOCH":"5493","SEMIMAJOR_AXIS":"6925.375","OBJECT_ID":"2021-036BC","NORAD_CAT_ID":"48326","MEAN_MOTION_DDOT":"0.0000000000000","MEAN_ELEMENT_THEORY":"SGP4","COUNTRY_CODE":"US","ELEMENT_SET_NO":"999","ECCENTRICITY":"0.00014100","EPOCH":"2022-04-25T20:14:46.895712","LAUNCH_DATE":"2021-04-29","BSTAR":"-0.00000689870000"},{"ARG_OF_PERICENTER":"63.9172","INCLINATION":"53.0556","REF_FRAME":"TEME","PERIOD":"95.592","SEMIMAJOR_AXIS":"6925.350","REV_AT_EPOCH":"5490","NORAD_CAT_ID":"48327","OBJECT_ID":"2021-036BD","MEAN_MOTION_DDOT":"0.0000000000000","COUNTRY_CODE":"US","MEAN_ELEMENT_THEORY":"SGP4","ECCENTRICITY":"0.00015230","ELEMENT_SET_NO":"999","LAUNCH_DATE":"2021-04-29","BSTAR":"0.00014953000000","EPOCH":"2022-04-25T15:22:51.013344","MEAN_MOTION":"15.06399378","CLASSIFICATION_TYPE":"U","FILE":"3416090","SITE":"AFETR","APOAPSIS":"548.270","OBJECT_TYPE":"PAYLOAD","EPHEMERIS_TYPE":"0","RCS_SIZE":"LARGE","PERIAPSIS":"546.161","RA_OF_ASC_NODE":"329.5254","GP_ID":"202027924","TLE_LINE2":"2 48327  53.0556 329.5254 0001523  63.9172 296.1974 15.06399378 54906","TIME_SYSTEM":"UTC","MEAN_MOTION_DOT":"0.00001946","CENTER_NAME":"EARTH","DECAY_DATE":null,"TLE_LINE1":"1 48327U 21036BD  22115.64086821  .00001946  00000-0  14953-3 0  9997","MEAN_ANOMALY":"296.1974","OBJECT_NAME":"STARLINK-2502"},{"RCS_SIZE":"LARGE","GP_ID":"202026177","TLE_LINE2":"2 48328  53.0565 328.6531 0001177  69.6525 290.4591 15.06379970 54936","RA_OF_ASC_NODE":"328.6531","PERIAPSIS":"546.460","DECAY_DATE":null,"CENTER_NAME":"EARTH","MEAN_MOTION_DOT":"-0.00000459","TIME_SYSTEM":"UTC","OBJECT_NAME":"STARLINK-2504","MEAN_ANOMALY":"290.4591","TLE_LINE1":"1 48328U 21036BE  22115.83623763 -.00000459  00000-0 -11939-4 0  9993","SITE":"AFETR","FILE":"3416090","CLASSIFICATION_TYPE":"U","MEAN_MOTION":"15.06379970","APOAPSIS":"548.090","EPHEMERIS_TYPE":"0","OBJECT_TYPE":"PAYLOAD","MEAN_MOTION_DDOT":"0.0000000000000","MEAN_ELEMENT_THEORY":"SGP4","COUNTRY_CODE":"US","ELEMENT_SET_NO":"999","ECCENTRICITY":"0.00011770","EPOCH":"2022-04-25T20:04:10.931232","BSTAR":"-0.00001193900000","LAUNCH_DATE":"2021-04-29","REF_FRAME":"TEME","INCLINATION":"53.0565","ARG_OF_PERICENTER":"69.6525","PERIOD":"95.593","REV_AT_EPOCH":"5493","SEMIMAJOR_AXIS":"6925.410","OBJECT_ID":"2021-036BE","NORAD_CAT_ID":"48328"},{"EPHEMERIS_TYPE":"0","OBJECT_TYPE":"PAYLOAD","SITE":"AFETR","FILE":"3416090","CLASSIFICATION_TYPE":"U","MEAN_MOTION":"15.06389270","APOAPSIS":"548.193","DECAY_DATE":null,"CENTER_NAME":"EARTH","TIME_SYSTEM":"UTC","MEAN_MOTION_DOT":"-0.00000240","MEAN_ANOMALY":"297.8028","OBJECT_NAME":"STARLINK-2510","TLE_LINE1":"1 48329U 21036BF  22115.83254489 -.00000240  00000-0  27579-5 0  9994","RCS_SIZE":"LARGE","TLE_LINE2":"2 48329  53.0542 328.6796 0001367  62.3100 297.8028 15.06389270 54935","GP_ID":"202026427","RA_OF_ASC_NODE":"328.6796","PERIAPSIS":"546.300","REV_AT_EPOCH":"5493","SEMIMAJOR_AXIS":"6925.381","OBJECT_ID":"2021-036BF","NORAD_CAT_ID":"48329","REF_FRAME":"TEME","ARG_OF_PERICENTER":"62.3100","INCLINATION":"53.0542","PERIOD":"95.593","ELEMENT_SET_NO":"999","ECCENTRICITY":"0.00013670","EPOCH":"2022-04-25T19:58:51.878496","BSTAR":"0.00000275790000","LAUNCH_DATE":"2021-04-29","MEAN_MOTION_DDOT":"0.0000000000000","MEAN_ELEMENT_THEORY":"SGP4","COUNTRY_CODE":"US"},{"APOAPSIS":"548.250","MEAN_MOTION":"15.06383317","CLASSIFICATION_TYPE":"U","SITE":"AFETR","FILE":"3416090","OBJECT_TYPE":"PAYLOAD","EPHEMERIS_TYPE":"0","PERIAPSIS":"546.279","RA_OF_ASC_NODE":"328.3938","TLE_LINE2":"2 48330  53.0545 328.3938 0001423  78.0952 282.0196 15.06383317 54946","GP_ID":"202027174","RCS_SIZE":"LARGE","TLE_LINE1":"1 48330U 21036BG  22115.89521019  .00000988  00000-0  85224-4 0  9996","OBJECT_NAME":"STARLINK-2501","MEAN_ANOMALY":"282.0196","MEAN_MOTION_DOT":"0.00000988","TIME_SYSTEM":"UTC","CENTER_NAME":"EARTH","DECAY_DATE":null,"PERIOD":"95.593","ARG_OF_PERICENTER":"78.0952","INCLINATION":"53.0545","REF_FRAME":"TEME","NORAD_CAT_ID":"48330","OBJECT_ID":"2021-036BG","SEMIMAJOR_AXIS":"6925.400","REV_AT_EPOCH":"5494","COUNTRY_CODE":"US","MEAN_ELEMENT_THEORY":"SGP4","MEAN_MOTION_DDOT":"0.0000000000000","LAUNCH_DATE":"2021-04-29","BSTAR":"0.00008522400000","EPOCH":"2022-04-25T21:29:06.160416","ECCENTRICITY":"0.00014230","ELEMENT_SET_NO":"999"},{"MEAN_MOTION_DDOT":"0.0000000000000","MEAN_ELEMENT_THEORY":"SGP4","COUNTRY_CODE":"US","ELEMENT_SET_NO":"999","ECCENTRICITY":"0.00015400","EPOCH":"2022-04-25T21:23:47.536224","BSTAR":"0.00000436500000","LAUNCH_DATE":"2021-04-29","ARG_OF_PERICENTER":"67.3773","INCLINATION":"53.0539","REF_FRAME":"TEME","PERIOD":"95.593","REV_AT_EPOCH":"5494","SEMIMAJOR_AXIS":"6925.390","OBJECT_ID":"2021-036BH","NORAD_CAT_ID":"48331","RCS_SIZE":"LARGE","TLE_LINE2":"2 48331  53.0539 328.4156 0001540  67.3773 292.7378 15.06386380 54948","GP_ID":"202027424","PERIAPSIS":"546.189","RA_OF_ASC_NODE":"328.4156","DECAY_DATE":null,"MEAN_MOTION_DOT":"-0.00000216","TIME_SYSTEM":"UTC","CENTER_NAME":"EARTH","OBJECT_NAME":"STARLINK-2514","MEAN_ANOMALY":"292.7378","TLE_LINE1":"1 48331U 21036BH  22115.89152241 -.00000216  00000-0  43650-5 0  9997","CLASSIFICATION_TYPE":"U","SITE":"AFETR","FILE":"3416090","MEAN_MOTION":"15.06386380","APOAPSIS":"548.322","EPHEMERIS_TYPE":"0","OBJECT_TYPE":"PAYLOAD"}];
